ORBCOMM FM24 [-]        
1 25478U 98053D   23299.21072891  .00001552  00000+0  59117-3 0  9994
2 25478  45.0088 225.8836 0001106  10.6051 349.4819 14.34813767311184
ORBCOMM FM25 [-]        
1 25479U 98053E   23299.17471747  .00001520  00000+0  58020-3 0  9990
2 25479  45.0078 224.2872 0002273 106.3806 253.7291 14.34794853311471
ORBCOMM FM26 [-]        
1 25480U 98053F   23299.18311161  .00001189  00000+0  46868-3 0  9994
2 25480  45.0072 217.6299 0004188 144.6385 215.4740 14.34358251311427
ORBCOMM FM27 [+]        
1 25481U 98053G   23299.22929007  .00001483  00000+0  56758-3 0  9990
2 25481  45.0062 224.2861 0001929 318.6606  41.4095 14.34770011311416
ORBCOMM FM28 [-]        
1 25482U 98053H   23299.90635023  .00001129  00000+0  43966-3 0  9992
2 25482  45.0055 160.2603 0003291 169.4894 190.6023 14.35259778312172
ORBCOMM FM30 [-]        
1 25980U 99065A   23299.37278935  .00001325  00000+0  51538-3 0  9997
2 25980  45.0332  42.0691 0007421 241.9953 118.0144 14.34487628248248
ORBCOMM FM31 [-]        
1 25981U 99065B   23299.40986619  .00001362  00000+0  52817-3 0  9999
2 25981  45.0246  35.7476 0004454 256.3402 103.6949 14.34517020247809
ORBCOMM FM32 [+]        
1 25982U 99065C   23299.38786021  .00001255  00000+0  50072-3 0  9994
2 25982  45.0173  48.2057 0006358 261.9848  98.0277 14.33458272248459
